77P/Longmore,e,24.3185,14.7628,196.6854,3.622261,0.1429665,0.35168092,51.4737,03/28.0/2024,2000,g  7.0,8.0
# From MPEC 2021-O56
78P/Gehrels,e,6.2569,210.5311,192.6863,3.735542,0.1365129,0.46317686,248.2032,03/28.0/2024,2000,g  5.5,8.0
# From MPC 94675
79P/du Toit-Hartley,e,3.1488,281.7714,280.5262,2.943820,0.1951359,0.61920672,35.0560,03/28.0/2024,2000,g 16.0,4.0
# From MPEC 2023-RF3
80P/Peters-Hartley,e,29.9237,259.7835,339.2746,4.022784,0.1221558,0.59823009,58.0518,03/28.0/2024,2000,g  9.0,8.0
# From MPEC 2024-F91
81P/Wild,e,3.2368,136.0936,41.5898,3.452842,0.1536169,0.53726877,71.9576,03/28.0/2024,2000,g  7.0,6.0
# From MPC133426
82P/Gehrels,e,1.1292,239.2342,226.4115,4.132296,0.1173321,0.12244239,247.0050,03/28.0/2024,2000,g 15.0,4.0
# From NK 932
83D/Russell,e,17.8262,226.3057,334.4326,3.843954,0.1307786,0.44135601,136.0813,03/28.0/2024,2000,g  9.0,4.0
# From MPEC 2020-FB5
84P/Giclas,e,7.5512,108.1609,281.6486,3.550093,0.1473481,0.51602998,205.1211,03/28.0/2024,2000,g  9.5,8.0
# From unp
85D/Boethin,e,4.1742,65.2841,333.0714,5.044137,0.0870009,0.77629452,116.2933,03/28.0/2024,2000,g  6.5,8.0
# From MPEC 2022-YB4
86P/Wild,e,15.5151,72.1184,180.5122,3.622652,0.1429434,0.37055867,111.2484,03/28.0/2024,2000,g 11.0,6.0
# From MPEC 2020-SI8
87P/Bus,e,2.7432,187.0036,50.9964,4.279220,0.1113415,0.23941832,159.4545,03/28.0/2024,2000,g  7.2,10.0
# From MPEC 2024-C04
88P/Howell,e,4.3820,56.6662,235.9216,3.107196,0.1799497,0.56322753,230.2761,03/28.0/2024,2000,g 11.0,6.0
# From MPEC 2023-J29
89P/Russell,e,12.0721,41.3456,250.4012,3.751701,0.1356319,0.40777707,0.1890,03/28.0/2024,2000,g 11.5,6.0
# From MPEC 2022-K19
90P/Gehrels,e,9.6480,13.2147,29.1118,6.052065,0.0661986,0.51112108,163.4803,03/28.0/2024,2000,g  8.5,6.0
# From MPEC 2023-VM5
91P/Russell,e,16.1374,243.0372,359.3374,3.930923,0.1264627,0.32304836,158.4753,03/28.0/2024,2000,g  7.5,6.0
# From MPEC 2014-J58
92P/Sanguin,e,19.4945,181.3771,163.8014,5.342881,0.0798070,0.66052451,263.9222,03/28.0/2024,2000,g 12.0,6.0
# From NK 2707
93P/Lovas,e,12.2051,339.5820,74.9458,4.377203,0.1076240,0.61399401,277.5801,03/28.0/2024,2000,g  9.0,4.0
# From MPEC 2024-F91
94P/Russell,e,6.1879,70.8519,92.4035,3.510592,0.1498420,0.36568022,46.7437,03/28.0/2024,2000,g  9.0,6.0
# From MPC 75717
95P/Chiron,e,6.9226,209.1991,339.4060,13.71003,0.0194154,0.37682989,200.9085,03/28.0/2024,2000,g  6.5,2.0
# From MPEC 2023-N01
96P/Machholz,e,57.5449,93.9550,14.7418,3.030826,0.1867939,0.96162619,78.8068,03/28.0/2024,2000,g 13.0,4.8
# From MPC106348
96P-B/Machholz,e,57.5041,14.7174,93.9535,3.030119,0.1868592,0.96163464,78.8358,03/28.0/2024,2000,g 13.0,4.8
# From MPC103849
96P-C/Machholz,e,58.5311,94.3495,15.5380,3.011920,0.1885553,0.95889850,359.8715,07/14.0/2012,2000,g  9.0,4.0
# From MPEC 2024-F34
97P/Metcalf-Brewington,e,17.9486,184.0802,230.1031,4.766416,0.0947144,0.46029263,73.0263,03/28.0/2024,2000,g  5.5,6.0
# From MPEC 2021-W31
98P/Takamizawa,e,10.5722,114.6322,157.7304,3.789780,0.1335928,0.56271724,157.4981,03/28.0/2024,2000,g  9.0,8.0
# From MPEC 2024-A43
99P/Kowal,e,4.3394,28.0933,174.6706,6.097096,0.0654666,0.22852959,46.9959,03/28.0/2024,2000,g  4.5,6.0
# From MPEC 2023-OA6
100P/Hartley,e,25.5673,37.6856,181.9658,3.430595,0.1551136,0.41165599,92.3271,03/28.0/2024,2000,g  9.0,8.0
# From MPEC 2024-EF7
101P/Chernykh,e,5.0492,116.1613,277.8842,5.813413,0.0703165,0.59624522,107.9724,03/28.0/2024,2000,g 10.0,4.8
# From MPC105241
101P-B/Chernykh,e,5.0499,278.5490,115.4990,5.828900,0.0700365,0.59645592,106.2973,03/28.0/2024,2000,g  9.0,4.0
# From MPEC 2022-C56
102P/Shoemaker,e,25.8708,339.4107,20.6632,3.818439,0.1320916,0.45662539,153.2996,03/28.0/2024,2000,g  6.5,8.0
# From MPEC 2024-F34
103P/Hartley,e,13.6107,219.7491,181.3005,3.474393,0.1521898,0.69372726,25.4907,03/28.0/2024,2000,g  8.5,8.0
# From MPEC 2023-G31
104P/Kowal,e,5.7031,207.2076,227.2577,3.208675,0.1714808,0.66587024,138.2253,03/28.0/2024,2000,g 16.0,4.0
# From MPEC 2024-F34
105P/SingerBrewster,e,9.1682,192.3974,46.3631,3.471422,0.1523853,0.40891510,314.1560,03/28.0/2024,2000,g 11.5,6.0
# From MPEC 2023-UR6
106P/Schuster,e,19.5405,48.8621,353.7688,3.767036,0.1348045,0.59390788,128.3249,03/28.0/2024,2000,g 14.0,4.8
# From MPEC 2015-M77
107P/Wilson-Harrington,e,2.7986,266.7496,95.4962,2.625249,0.2317118,0.63140740,134.7205,03/28.0/2024,2000,g  9.0,4.0
# From MPEC 2022-P82
108P/Ciffreo,e,11.4362,50.2977,354.5001,3.742512,0.1361317,0.55606696,126.5476,03/28.0/2024,2000,g  8.0,12.0
# From  105, 420
109P/Swift-Tuttle,e,113.4601,139.4470,153.2105,26.21218,0.0073443,0.96258469,83.8872,03/28.0/2024,2000,g  4.0,6.0
# From MPEC 2023-KD6
110P/Hartley,e,11.7075,287.4920,167.5006,3.603917,0.1440595,0.31900321,128.3951,03/28.0/2024,2000,g  1.0,12.0
# From MPC 75718
111P/Helin-Roman-Crockett,e,4.2259,89.8134,1.2098,4.152169,0.1164908,0.10711928,118.1342,03/28.0/2024,2000,g  5.0,8.0
# From MPEC 2021-S45
112P/Urata-Niijima,e,24.2097,31.8340,21.4994,3.523605,0.1490127,0.59084254,224.7539,03/28.0/2024,2000,g 14.0,6.0
# From MPEC 2023-VM5
113P/Spitaler,e,5.2878,306.6566,115.6339,3.694267,0.1388071,0.41994402,92.3469,03/28.0/2024,2000,g 13.5,4.0
# From MPEC 2023-A50
114P/Wiseman-Skiff,e,18.3006,271.0239,172.7656,3.541644,0.1478756,0.55592479,226.7726,03/28.0/2024,2000,g 11.5,6.0
# From MPEC 2023-J29
115P/Maury,e,11.6770,176.0140,120.9679,4.272129,0.1116189,0.51755654,149.4398,03/28.0/2024,2000,g 10.5,6.0
# From MPEC 2023-VM5
116P/Wild,e,3.6035,20.9707,173.2068,3.487634,0.1513240,0.37032068,93.8733,03/28.0/2024,2000,g  2.5,10.0
# From MPEC 2024-F91
117P/Helin-Roman-Alu,e,8.7056,58.8137,223.5765,4.094641,0.1189543,0.25602791,74.5257,03/28.0/2024,2000,g  2.5,8.0
# From MPEC 2024-F91
118P/Shoemaker-Levy,e,10.0903,142.0844,314.8840,3.348211,0.1608736,0.45371079,78.7544,03/28.0/2024,2000,g 12.0,4.0
# From MPEC 2024-F34
119P/Parker-Hartley,e,7.3923,104.5581,322.1751,3.807419,0.1326655,0.38837418,78.7645,03/28.0/2024,2000,g  3.5,8.0
# From MPEC 2022-CN4
120P/Mueller,e,8.4868,358.7232,36.7126,3.967938,0.1246972,0.37470831,131.5795,03/28.0/2024,2000,g 12.0,4.0
# From MPEC 2024-EF7
121P/Shoemaker-Holt,e,20.1629,94.1119,11.7485,4.585760,0.1003661,0.18649098,27.3668,03/28.0/2024,2000,g  6.5,8.0
# From MPC 75718
122P/de Vico,e,85.9368,79.7256,12.9923,17.62802,0.0133168,0.96246150,138.7409,03/28.0/2024,2000,g  7.5,5.2
# From MPEC 2021-F20
123P/West-Hartley,e,15.2800,45.9023,104.0196,3.881566,0.1288824,0.44429287,242.8889,03/28.0/2024,2000,g 12.2,4.0
# From MPEC 2023-T65
124P/Mrkos,e,31.4501,0.0670,185.1806,3.373201,0.1590892,0.48680034,229.8987,03/28.0/2024,2000,g 13.5,2.8
# From MPEC 2024-F34
125P/Spacewatch,e,9.9848,153.1502,87.1396,3.129326,0.1780442,0.51213372,3.6865,03/28.0/2024,2000,g 13.0,6.0
# From MPEC 2024-F91
126P/IRAS,e,45.8707,357.8614,356.5798,5.633775,0.0737063,0.69641366,19.6589,03/28.0/2024,2000,g  6.0,8.0
# From MPEC 2024-AF0
127P/Holt-Olmstead,e,14.3005,13.6084,6.3074,3.452828,0.1536178,0.35927307,91.4941,03/28.0/2024,2000,g 11.0,6.0
# From MPC 89014
128P/Shoemaker-Holt,e,4.3703,214.3397,210.3595,4.485411,0.1037530,0.32237080,272.8124,03/28.0/2024,2000,g  8.5,4.0
# From MPEC 2024-F34
129P/Shoemaker-Levy,e,3.4422,184.8608,307.5551,4.291675,0.1108572,0.08558073,53.5481,03/28.0/2024,2000,g 11.0,4.0
# From MPEC 2024-F34
130P/McNaught-Hughes,e,6.0636,70.1787,246.1272,3.381280,0.1585194,0.46085942,357.1652,03/28.0/2024,2000,g 10.0,6.0
# From MPC102101
131P/Mueller,e,7.3606,214.1778,179.1209,3.677002,0.1397859,0.34491897,263.6434,03/28.0/2024,2000,g 11.0,4.0
# From MPEC 2024-BE0
132P/Helin-Roman-Alu,e,5.3813,173.9945,216.4548,3.890496,0.1284389,0.56456799,111.1966,03/28.0/2024,2000,g 11.0,6.0
# From MPC 94676
133P/Elst-Pizarro,e,1.3897,160.1017,131.9177,3.164483,0.1750854,0.15603523,352.4133,03/28.0/2024,2000,g 15.4,2.0
# From MPC 89012
134P/Kowal-Vavrova,e,4.3348,202.0111,18.7698,6.267488,0.0628151,0.58512837,227.0871,03/28.0/2024,2000,g 11.5,4.0
# From MPEC 2024-C04
135P/Shoemaker-Levy,e,6.0639,213.0190,22.3992,3.800532,0.1330263,0.29420904,95.8713,03/28.0/2024,2000,g  7.0,8.0
# From MPEC 2022-K19
136P/Mueller,e,9.4279,137.4965,225.1581,4.186244,0.1150714,0.29325577,327.6371,03/28.0/2024,2000,g 11.0,4.0
# From MPEC 2023-J29
137P/Shoemaker-Levy,e,4.8604,232.9254,141.2174,4.522384,0.1024833,0.57356963,197.7498,03/28.0/2024,2000,g 11.0,4.0
# From MPEC 2016-U66
138P/Shoemaker-Levy,e,10.0960,309.2899,95.6279,3.618899,0.1431658,0.53162210,256.0384,03/28.0/2024,2000,g 15.0,6.0
# From MPEC 2020-HN5
139P/Vaisala-Oterma,e,2.3373,242.1810,165.8465,4.516079,0.1026979,0.24833414,235.6378,03/28.0/2024,2000,g  9.5,4.0
# From MPEC 2015-E14
140P/Bowell-Skiff,e,3.7815,343.3371,172.3485,6.406236,0.0607855,0.69604402,192.6905,03/28.0/2024,2000,g 11.5,6.0
# From MPEC 2022-K19
141P/Machholz,e,13.9553,241.8099,153.6028,3.057527,0.1843523,0.73608057,220.6608,03/28.0/2024,2000,g 12.0,12.0
# From MPEC 2015-KD9
141P-A/Machholz,e,13.9433,153.5508,241.8755,3.057660,0.1843403,0.73607817,220.6139,03/28.0/2024,2000,g 12.0,12.0
# From MPC 24216
141P-B/Machholz,e,13.9872,153.6264,241.7648,3.056048,0.1844861,0.73583620,221.9752,03/28.0/2024,2000,g  9.0,4.0
# From MPC 37026
141P-D/Machholz,e,13.8354,153.2777,242.1232,3.066117,0.1835782,0.73703260,216.5586,03/28.0/2024,2000,g  9.0,4.0
# From MPEC 2015-R12
141P-E/Machholz,e,12.8152,246.1856,149.2667,3.012914,0.1884620,0.75023267,359.9529,09/19.0/1994,2000,g  9.0,4.0
# From MPEC 2015-R12
141P-F/Machholz,e,12.7898,246.1881,149.2374,3.010224,0.1887147,0.75000946,359.9630,09/19.0/1994,2000,g  9.0,4.0
# From MPEC 2015-R12
141P-G/Machholz,e,12.8259,246.3146,149.0784,3.005818,0.1891298,0.74964304,359.9802,09/19.0/1994,2000,g  9.0,4.0
# From MPC 95735
141P-H/Machholz,e,12.8431,246.0900,149.4500,3.008012,0.1889230,0.74682218,359.9270,08/24.0/2015,2000,g 18.5,4.0
# From MPEC 2022-SU8
141P-I/Machholz,e,13.9432,153.5051,241.8857,3.048140,0.1852045,0.73530365,221.7610,03/28.0/2024,2000,g 17.5,4.0
# From MPEC 2024-C04
142P/Ge-Wang,e,12.2496,175.9440,174.0719,5.002355,0.0880932,0.49660229,92.5493,03/28.0/2024,2000,g  8.5,6.0
# From MPEC 2023-XP6
